              TDR Cartesian                         TDR Cartesian  
    -----------------------------------       --------------------------------
     X    =       20608429.94                 X    =         6281449.45
     Y    =        6655442.54  feet           Y    =         2028578.89  meter
     Z    =        5094898.47                 Z    =         1552925.05
     XDOT =       -190.269251                 XDOT =         -57.994068
     YDOT =      15132.378289  feet/sec       YDOT =        4612.348903  meter/sec
     ZDOT =     -18871.868991                 ZDOT =       -5752.145669
  
  
    The mean element set is posted at the UTC for which position is
    just north of the next ascending node relative to the above
    vector time
 
 
    TWO LINE MEAN ELEMENT SET
  
    ISS
    1 25544U 98067A   16116.74911255  .00016717  00000-0  10270-3 0  9040
    2 25544  51.6424 319.6037 0001548  73.3580 286.7743 15.54328043 36828
  
  
    Satellite: ISS
    Catalog Number: 25544
    Epoch time:      16116.74911255   =   yrday.fracday
    Element set:     904
    Inclination:       51.6424  deg
    RA of node:       319.6037  deg
    Eccentricity:     .0001548     
    Arg of perigee:    73.3580  deg
    Mean anomaly:     286.7743  deg
    Mean motion:   15.54328043  rev/day
    Decay rate:    1.67170E-04  rev/day^2
    Epoch rev:            3682
    Checksum:              312
 
 
    Coasting Arc #6 (Orbit 3697)
    ---------------------------------------
 
    Vector Time (GMT): 2016/117/17:08:00.000
    Vector Time (MET): N/A
    Weight (LBS)     : 945238.6
 
              M50 Cartesian                         M50 Keplerian  
    -----------------------------------       --------------------------------
     X    =        4816399.65                 A    =         6788713.76  meter
     Y    =       -4772425.16  meter          E    =           .0013984
     Z    =         164583.38                 I    =           51.40138
     XDOT =       3259.845284                 Wp   =           50.08216
     YDOT =       3507.862866  meter/sec      RA   =          314.15251  deg
     ZDOT =       5991.073585                 TA   =          311.69713
                                              MA   =          311.81669
                                              Ha   =            221.265  n.mi
                                              Hp   =            213.732
 
              M50 Cartesian                         J2K Cartesian  
    -----------------------------------       --------------------------------
     X    =       15801836.14                 X    =         4868608.65
     Y    =      -15657562.87  feet           Y    =        -4718273.06  meter
     Z    =         539971.72                 Z    =          188107.43
     XDOT =      10695.030459                 XDOT =        3191.274711
     YDOT =      11508.736438  feet/sec       YDOT =        3543.933255  meter/sec
     ZDOT =      19655.753230                 ZDOT =        6006.742766
 
              TDR Cartesian                         TDR Cartesian  
    -----------------------------------       --------------------------------
     X    =      -20323454.95                 X    =        -6194589.07
     Y    =       -9038391.61  feet           Y    =        -2754901.76  meter
     Z    =         643059.84                 Z    =          196004.64
     XDOT =       6231.120808                 XDOT =        1899.245622
     YDOT =     -12543.235252  feet/sec       YDOT =       -3823.178105  meter/sec
     ZDOT =      19723.103839                 ZDOT =        6011.602050
  
  
    The mean element set is posted at the UTC for which position is
    just north of the next ascending node relative to the above
    vector time
 
 
    TWO LINE MEAN ELEMENT SET
  
    ISS
    1 25544U 98067A   16117.77780813  .00016717  00000-0  10270-3 0  9059
    2 25544  51.6428 314.4746 0001664  73.9996 286.1340 15.54335459 36981
  
  
    Satellite: ISS
    Catalog Number: 25544
    Epoch time:      16117.77780813   =   yrday.fracday
    Element set:     905
    Inclination:       51.6428  deg
    RA of node:       314.4746  deg
    Eccentricity:     .0001664     
    Arg of perigee:    73.9996  deg
    Mean anomaly:     286.1340  deg
    Mean motion:   15.54335459  rev/day
    Decay rate:    1.67170E-04  rev/day^2
    Epoch rev:            3698
    Checksum:              344
 
 
    Coasting Arc #7 (Orbit 3712)
    ---------------------------------------
 
    Vector Time (GMT): 2016/118/17:08:00.000
    Vector Time (MET): N/A
    Weight (LBS)     : 945238.6
 
              M50 Cartesian                         M50 Keplerian  
    -----------------------------------       --------------------------------
     X    =       -5187448.06                 A    =         6787028.52  meter
     Y    =        3924033.26  meter          E    =           .0007725
     Z    =       -1932284.69                 I    =           51.37447
     XDOT =      -1694.476845                 Wp   =          129.66359
     YDOT =      -4977.117234  meter/sec      RA   =          309.16325  deg
     ZDOT =      -5578.114900                 TA   =           71.71393
                                              MA   =           71.62989
                                              Ha   =            221.175  n.mi
                                              Hp   =            213.705
 
              M50 Cartesian                         J2K Cartesian  
    -----------------------------------       --------------------------------
     X    =      -17019186.54                 X    =        -5221555.71
     Y    =       12874124.86  feet           Y    =         3865833.05  meter
     Z    =       -6339516.70                 Z    =        -1957567.17
     XDOT =      -5559.307235                 XDOT =       -1611.599132
     YDOT =     -16329.124783  feet/sec       YDOT =       -4995.602615  meter/sec
     ZDOT =     -18300.901902                 ZDOT =       -5586.145033
 
              TDR Cartesian                         TDR Cartesian  
    -----------------------------------       --------------------------------
     X    =       18346636.03                 X    =         5592054.66
     Y    =       10834335.66  feet           Y    =         3302305.51  meter
     Z    =       -6450069.04                 Z    =        -1965981.04
     XDOT =     -12261.323968                 XDOT =       -3737.251545
     YDOT =       9885.599841  feet/sec       YDOT =        3013.130831  meter/sec
     ZDOT =     -18334.797541                 ZDOT =       -5588.446291
  
  
    The mean element set is posted at the UTC for which position is
    just north of the next ascending node relative to the above
    vector time
 
 
    TWO LINE MEAN ELEMENT SET
  
    ISS
    1 25544U 98067A   16118.74220495  .00016717  00000-0  10270-3 0  9063
    2 25544  51.6429 309.6660 0001571  79.0557 281.0772 15.54354676 37133
  
  
    Satellite: ISS
    Catalog Number: 25544
    Epoch time:      16118.74220495   =   yrday.fracday
    Element set:     906
    Inclination:       51.6429  deg
    RA of node:       309.6660  deg
    Eccentricity:     .0001571     
    Arg of perigee:    79.0557  deg
    Mean anomaly:     281.0772  deg
    Mean motion:   15.54354676  rev/day
    Decay rate:    1.67170E-04  rev/day^2
    Epoch rev:            3713
    Checksum:              320
 
 
    Coasting Arc #8 (Orbit 3728)
    ---------------------------------------
 
    Vector Time (GMT): 2016/119/17:08:00.000
    Vector Time (MET): N/A
    Weight (LBS)     : 945238.6
 
              M50 Cartesian                         M50 Keplerian  
    -----------------------------------       --------------------------------
     X    =        5169276.93                 A    =         6783441.78  meter
     Y    =       -2710763.79  meter          E    =           .0013841
     Z    =        3444151.84                 I    =           51.34435
     XDOT =        200.871723                 Wp   =           89.83563
     YDOT =       6178.031418  meter/sec      RA   =          304.16461  deg
     ZDOT =       4545.199691                 TA   =          310.76344
                                              MA   =          310.88349
                                              Ha   =            221.071  n.mi
                                              Hp   =            213.653
 
              M50 Cartesian                         J2K Cartesian  
    -----------------------------------       --------------------------------
     X    =       16959569.98                 X    =         5182474.81
     Y    =       -8893581.98  feet           Y    =        -2652883.69  meter
     Z    =       11299710.77                 Z    =         3469295.20
     XDOT =        659.027962                 XDOT =         109.693674
     YDOT =      20269.131950  feet/sec       YDOT =        6179.767912  meter/sec
     ZDOT =      14912.072477                 ZDOT =        4545.953997
 
              TDR Cartesian                         TDR Cartesian  
    -----------------------------------       --------------------------------
     X    =      -14836479.67                 X    =        -4522159.00
     Y    =      -12004596.15  feet           Y    =        -3659000.91  meter
     Z    =       11409418.05                 Z    =         3477590.62
     XDOT =      17526.524680                 XDOT =        5342.084723
     YDOT =      -7437.478673  feet/sec       YDOT =       -2266.943499  meter/sec
     ZDOT =      14914.147997                 ZDOT =        4545.832310
  
  
    The mean element set is posted at the UTC for which position is
    just north of the next ascending node relative to the above
    vector time
 
 
    TWO LINE MEAN ELEMENT SET
  
    ISS
    1 25544U 98067A   16119.77088789  .00016717  00000-0  10270-3 0  9076
    2 25544  51.6439 304.5367 0001588  81.6491 278.4841 15.54388516 37290
  
